STARLINK-31             
1 44235U 19029A   20012.91668981  .00031408  00000-0  18107-2 0  9997
2 44235  53.0010 200.6592 0001441  82.1223 298.7669 15.12134117 36531
STARLINK-22             
1 44236U 19029B   20012.91668981  .00029257  00000-0  15412-2 0  9993
2 44236  52.9941 201.5021 0001618  55.8764 319.9909 15.15391170 36511
STARLINK-23             
1 44237U 19029C   20012.91668981  .00032404  00000-0  18694-2 0  9997
2 44237  52.9978 200.4703 0001471  78.0185 266.9213 15.12094297 35412
STARLINK-24             
1 44238U 19029D   20012.83346690  .00001684  00000-0  11332-3 0  9998
2 44238  52.9959 200.1775 0002124  95.9212 264.2021 15.12250593 33782
STARLINK-25             
1 44239U 19029E   20012.91668981  .00029377  00000-0  16961-2 0  9999
2 44239  53.0046 200.8875 0002685  72.7732   2.2592 15.12114508 35333
STARLINK-26             
1 44240U 19029F   20012.91668981  .00044119  00000-0  10859-2 0  9992
2 44240  53.0074 189.6670 0001965 106.7818 288.6953 15.40190616 35556
STARLINK-27             
1 44241U 19029G   20012.91668981  .00030457  00000-0  17577-2 0  9997
2 44241  53.0033 200.7724 0001603  84.2741 314.6796 15.12112930 35413
STARLINK-28             
1 44242U 19029H   20012.91668981  .00252870  00000-0  65894-2 0  9998
2 44242  52.9912 198.7423 0001111  69.1359 275.7550 15.37367211 35428
STARLINK-29             
1 44243U 19029J   20012.91668981 -.00002428  00000-0 -47985-4 0  9996
2 44243  52.9996 146.7005 0004410 317.0304  25.9673 15.41136164 36147
STARLINK-30             
1 44244U 19029K   20012.91668981  .00034748  00000-0  20021-2 0  9995
2 44244  53.0005 200.3401 0001617  69.5048 215.4360 15.12105424 35374
STARLINK-21             
1 44245U 19029L   20012.91668981  .00031678  00000-0  18267-2 0  9994
2 44245  52.9966 200.5540 0001646  68.1309 300.8604 15.12121662 35396
STARLINK-46             
1 44246U 19029M   20012.91668981  .00609263  11410-4  67312-3 0  9993
2 44246  52.9919 104.0626 0076241 114.9532 101.0348 16.02968526 36495
STARLINK-33             
1 44247U 19029N   20012.91668981  .00535218  00000-0  19164-1 0  9991
2 44247  53.0013 199.6378 0001144  85.7854 192.9387 15.26267078 35444
STARLINK-34             
1 44248U 19029P   20012.91668981  .00069255  00000-0  39836-2 0  9994
2 44248  52.9935 199.6960 0001909  89.9889  14.8153 15.11839898 35358
STARLINK-61             
1 44249U 19029Q   20012.91668981  .00279635  00000-0  14116-1 0  9993
2 44249  52.9963 193.7041 0003150 303.8326 233.1909 15.15332978 35513
STARLINK-36             
1 44250U 19029R   20012.91668981  .00033572  00000-0  19355-2 0  9994
2 44250  52.9995 200.4435 0001591  82.3945 232.5595 15.12101413 35379
STARLINK-37             
1 44251U 19029S   20012.91668981  .00033499  00000-0  19316-2 0  9990
2 44251  52.9816 199.7547 0002444  89.3678 231.5472 15.12095132 35344
STARLINK-71             
1 44252U 19029T   20012.91668981  .00037142  00000-0  21387-2 0  9991
2 44252  52.9983 199.5899 0001548  88.4131 340.5400 15.12096498 35344
STARLINK-39             
1 44253U 19029U   20012.91668981  .00031057  00000-0  17921-2 0  9990
2 44253  53.0032 200.7373 0001603  85.4923 301.3800 15.12106794 35397
STARLINK-32             
1 44254U 19029V   20012.91668981  .00032567  00000-0  18779-2 0  9990
2 44254  52.9978 200.4636 0001340  82.3779 256.5344 15.12109619 35356
STARLINK-66             
1 44255U 19029W   20012.91668981  .00438255  00000-0  15453-1 0  9990
2 44255  52.9992 199.4491 0001270  65.1794 182.8312 15.26854505 35371
STARLINK-42             
1 44256U 19029X   20012.91668981  .00576328  00000-0  26808-1 0  9991
2 44256  52.9938 199.8179 0001226  72.4621  56.9649 15.17156736 35320
STARLINK-43             
1 44257U 19029Y   20012.91668981  .00039039  00000-0  13515-2 0  9997
2 44257  53.0002 167.7909 0002668 104.2260 351.1652 15.29509623 35878
STARLINK-40             
1 44258U 19029Z   20012.91668981  .00032685  00000-0  18853-2 0  9998
2 44258  52.9987 200.4586 0001735  79.0675 253.8621 15.12096479 35391
STARLINK-52             
1 44259U 19029AA  20012.72443772  .00001572  00000-0  47498-4 0  9997
2 44259  53.0021 149.0415 0002737 102.6498 257.4812 15.40844226 35980
STARLINK-45             
1 44260U 19029AB  20012.91668981  .00033365  00000-0  19241-2 0  9999
2 44260  53.0084 199.2239 0001881  68.4102 294.5127 15.12094392 35477
STARLINK-44             
1 44261U 19029AC  20012.91668981  .00032826  00000-0  18919-2 0  9992
2 44261  52.9988 200.4378 0001484  78.2374 248.6691 15.12123003 35419
STARLINK-49             
1 44262U 19029AD  20012.91668981  .00030583  00000-0  17655-2 0  9997
2 44262  53.0030 200.7835 0001675  95.7882 309.1064 15.12099022 35422
STARLINK-72             
1 44263U 19029AE  20012.91668981 -.00014016  00000-0 -74492-3 0  9996
2 44263  52.9996 200.3173 0001378  69.4963 202.2126 15.14145288 35409
STARLINK-35             
1 44264U 19029AF  20012.91668981  .00033106  00000-0  19090-2 0  9998
2 44264  53.0003 200.3783 0001505  78.2965 218.6095 15.12100542 35396
STARLINK-63             
1 44265U 19029AG  20012.91668981  .00034117  00000-0  17922-2 0  9994
2 44265  52.9998 199.7905 0001885  68.9129 217.0953 15.15414123 35420
STARLINK-54             
1 44266U 19029AH  20012.91668981  .00031051  00000-0  17918-2 0  9994
2 44266  52.9928 199.8025 0001341  95.0399 351.9190 15.12105963 35354
STARLINK-69             
1 44267U 19029AJ  20012.91668981  .00033895  00000-0  17812-2 0  9996
2 44267  52.9985 199.6885 0001569  79.7786 254.0750 15.15404187 35405
STARLINK-55             
1 44268U 19029AK  20012.91668981  .00479833  00000-0  16444-1 0  9992
2 44268  52.9901 199.2056 0001186 101.2656 109.5070 15.27604615 35378
STARLINK-57             
1 44269U 19029AL  20012.91668981  .00032551  00000-0  18761-2 0  9990
2 44269  52.9970 200.1586 0001526  88.1081 322.8215 15.12126280 35448
STARLINK-58             
1 44270U 19029AM  20012.91668981  .00031144  00000-0  17972-2 0  9992
2 44270  52.9985 199.9346 0001469  76.9197 111.9589 15.12104657 35438
STARLINK-59             
1 44271U 19029AN  20012.91668981 -.00011991  00000-0 -63463-3 0  9990
2 44271  52.9967 199.7400 0001321  82.0818 177.6416 15.14149028 35423
STARLINK-51             
1 44272U 19029AP  20012.91668981  .00033485  00000-0  19300-2 0  9991
2 44272  52.9986 200.3235 0001897  73.6124 217.2530 15.12111307 35395
STARLINK-60             
1 44273U 19029AQ  20012.74987726  .00024135  00000-0  42849-3 0  9991
2 44273  52.9995 139.8487 0004437 286.7146  73.3374 15.50097925 36226
STARLINK-62             
1 44274U 19029AR  20012.83334491 -.00008949  00000-0 -49690-3 0  9995
2 44274  52.9999 199.8908 0001813  74.0257  14.9563 15.12128732 35387
STARLINK-64             
1 44275U 19029AS  20012.91668981  .00160935  00000-0  73641-2 0  9993
2 44275  52.9931 200.2121 0004105 272.7461 195.1229 15.19370903 35386
STARLINK-65             
1 44276U 19029AT  20012.91668981  .00036648  00000-0  21100-2 0  9990
2 44276  53.0020 200.2454 0001372  70.3295 172.6344 15.12107707 35412
STARLINK-41             
1 44277U 19029AU  20012.91668981  .00030853  00000-0  16242-2 0  9994
2 44277  52.9982 200.4466 0001645  80.4829 337.3872 15.15388675 35404
STARLINK-67             
1 44278U 19029AV  20012.91668981  .00005382  11030-4  30447-4 0  9998
2 44278  52.9928  89.2364 0020696   8.8547 251.3824 15.88571344 36920
STARLINK-68             
1 44279U 19029AW  20012.91668981 -.00021683  00000-0 -11629-2 0  9993
2 44279  52.9974 199.2749 0001311  73.2815 228.4647 15.14137966 35371
STARLINK-38             
1 44280U 19029AX  20012.91668981  .00036310  00000-0  20908-2 0  9996
2 44280  53.0017 200.2104 0001386  75.2977 173.6508 15.12107783 35429
STARLINK-70             
1 44281U 19029AY  20012.91668981  .00033707  00000-0  17716-2 0  9997
2 44281  53.0000 199.8766 0002274  86.3790 223.4462 15.15401330 35355
STARLINK-80             
1 44282U 19029AZ  20012.75560774  .00002331  00000-0  10868-3 0  9992
2 44282  53.0196 177.3729 0006605 101.7103 258.4635 15.24021117 34129
STARLINK-56             
1 44283U 19029BA  20012.91668981  .00038326  00000-0  22040-2 0  9997
2 44283  53.0017 200.2944 0001875  80.8204 180.0576 15.12128328  1802
STARLINK-73             
1 44284U 19029BB  20012.91668981  .00036824  00000-0  21206-2 0  9992
2 44284  53.0016 200.2698 0001890  82.0147 172.9386 15.12096480 35400
STARLINK-50             
1 44285U 19029BC  20012.91668981  .00035225  00000-0  20294-2 0  9993
2 44285  52.9997 200.2832 0001257  90.9347 181.9894 15.12103201 36476
STARLINK-75             
1 44286U 19029BD  20012.91668981  .00038616  00000-0  20267-2 0  9991
2 44286  52.9991 198.3785 0001555  59.4022  46.4183 15.15387878 36491
STARLINK-76             
1 44287U 19029BE  20012.91668981  .00032603  00000-0  18804-2 0  9996
2 44287  52.9975 200.4939 0001462  82.0710 268.8758 15.12100934 36461
STARLINK-79             
1 44288U 19029BF  20012.91668981  .00029763  00000-0  17186-2 0  9992
2 44288  53.0038 200.8507 0001175  94.0127 328.9651 15.12104292 36477
STARLINK-48             
1 44289U 19029BG  20012.91668981  .00044909  00000-0  20905-2 0  9995
2 44289  52.9982 181.6286 0003102  83.9302 182.3042 15.19509851 36729
STARLINK-78             
1 44290U 19029BH  20012.91668981  .00032636  00000-0  18826-2 0  9990
2 44290  53.0034 200.7469 0001208  96.3085 320.6321 15.12094355 36478
STARLINK-77             
1 44291U 19029BJ  20012.91668981  .00035624  00000-0  20522-2 0  9997
2 44291  53.0044 200.9170 0001492  76.6587   4.2975 15.12100307 36468
STARLINK-81             
1 44292U 19029BK  20012.91668981  .00035452  00000-0  20425-2 0  9999
2 44292  53.0044 200.9448 0001601  87.2319   5.6861 15.12099181 36466
STARLINK-74             
1 44293U 19029BL  20012.91668981  .00034161  00000-0  19691-2 0  9999
2 44293  53.0035 200.8017 0001442  81.9952 310.8808 15.12099706 36460
